OBJECT_NAME,OBJECT_ID,EPOCH,MEAN_MOTION,ECCENTRICITY,INCLINATION,RA_OF_ASC_NODE,ARG_OF_PERICENTER,MEAN_ANOMALY,EPHEMERIS_TYPE,CLASSIFICATION_TYPE,NORAD_CAT_ID,ELEMENT_SET_NO,REV_AT_EPOCH,BSTAR,MEAN_MOTION_DOT,MEAN_MOTION_DDOT
STARLINK-37438,2026-133U,2026-07-04T14:00:01.999872,15.49375478,.00009362,53.1591,235.1286,49.4590,14.3783,0,U,69526,999,471,-.30414661E-2,-.166438E-2,0
STARLINK-37484,2026-133V,2026-07-04T14:00:01.999872,15.65726858,.00007798,53.1594,234.5898,71.5816,256.9793,0,U,69527,999,471,-.25555413E-1,-.232084E-1,0
STARLINK-37523,2026-133W,2026-07-04T14:00:01.999872,15.53326362,.00013537,53.1591,234.9573,58.1884,89.5320,0,U,69528,999,471,-.11418001E-1,-.674105E-2,0
STARLINK-37369,2026-133X,2026-07-04T14:00:01.999872,15.53904365,.00010632,53.1592,234.9193,57.1649,108.1630,0,U,69529,999,471,-.11612341E-1,-.698048E-2,0
STARLINK-37670,2026-133Y,2026-07-04T14:00:01.999872,15.49288082,.00008898,53.1590,235.0642,43.2316,50.4557,0,U,69530,999,471,.56289902E-4,.2682E-4,0
STARLINK-37897,2026-133Z,2026-07-04T14:00:01.999872,15.62818454,.00010265,53.1596,234.5159,50.3763,312.4213,0,U,69531,999,466,-.30393919E-1,-.2439767E-1,0
STARLINK-37933,2026-133AA,2026-07-04T14:00:01.999872,15.54257641,.00016631,53.1597,234.7471,66.9612,181.5829,0,U,69532,999,466,-.35586985E-1,-.2102399E-1,0
STARLINK-37890,2026-133AB,2026-07-04T14:00:01.999872,15.56256933,.00009353,53.1600,234.6076,55.6798,260.8870,0,U,69533,999,466,-.39471213E-1,-.2457713E-1,0
STARLINK-37407,2026-133AC,2026-07-04T14:00:01.999872,15.58518783,.00008876,53.1591,234.5030,64.8931,302.3649,0,U,69534,999,471,-.36188158E-1,-.2455188E-1,0
STARLINK-37888,2026-133AD,2026-07-04T14:00:01.999872,15.55741755,.00010352,53.1589,234.4906,55.3187,317.1487,0,U,69535,999,466,-.40419289E-1,-.246726E-1,0
STARLINK-37889,2026-133AE,2026-07-04T14:00:01.999872,15.49283948,.0001196,53.1598,235.3710,61.3745,245.4950,0,U,69536,999,466,-.17095585E-3,-.9935E-4,0
2026-134A,2026-134A,2026-07-04T14:59:52.382112,15.09383383,.00152382,97.6995,255.7965,207.5006,152.5418,0,U,69538,999,294,.58459803E-3,.9304E-4,0
2026-134B,2026-134B,2026-07-04T14:56:58.111584,15.09540474,.0015326,97.6972,255.7932,210.1452,149.8896,0,U,69539,999,293,.59895268E-3,.9576E-4,0
2026-134C,2026-134C,2026-07-04T14:56:23.091072,15.09572655,.00147518,97.6978,255.7952,211.2959,148.7393,0,U,69540,999,293,.60326971E-3,.9652E-4,0
2026-134D,2026-134D,2026-07-04T14:55:19.282944,15.09630153,.0015812,97.7017,255.8055,211.0138,149.0159,0,U,69541,999,293,.6061955E-3,.9718E-4,0
2026-134E,2026-134E,2026-07-04T14:54:54.815328,15.09652009,.00155458,97.7036,255.8103,211.7855,148.2437,0,U,69542,999,293,.60792899E-3,.9751E-4,0
2026-134F,2026-134F,2026-07-04T14:54:03.813408,15.09697686,.00148494,97.6989,255.7999,213.4343,146.5949,0,U,69543,999,293,.60404958E-3,.9698E-4,0
2026-134G,2026-134G,2026-07-04T14:52:30.601632,15.09782127,.00152944,97.7034,255.8119,214.2396,145.7848,0,U,69544,999,293,.61006739E-3,.982E-4,0
2026-134H,2026-134H,2026-07-04T14:51:17.349120,15.09849061,.00151442,97.7020,255.8095,215.6583,144.3635,0,U,69545,999,292,.62001885E-3,.9999E-4,0
STARLINK-37880,2026-135A,2026-07-03T19:13:36.852672,15.80904944,.00021111,97.2840,212.7588,89.2556,270.8954,0,U,69546,999,288,.19203824E-2,.386018E-2,0
STARLINK-37881,2026-135B,2026-07-04T01:17:24.106272,15.80964806,.00015594,97.2826,213.0268,131.5270,228.6133,0,U,69547,999,292,.15186567E-2,.303143E-2,0
STARLINK-37265,2026-135C,2026-07-03T20:42:58.442688,15.80901877,.00013892,97.2827,212.8265,93.3471,266.7956,0,U,69548,999,289,.14192362E-2,.281777E-2,0
STARLINK-37871,2026-135D,2026-07-04T01:15:05.308128,15.81025527,.00018039,97.2827,213.0285,147.3246,212.8135,0,U,69549,999,292,.24029211E-2,.49172E-2,0
STARLINK-37865,2026-135E,2026-07-04T01:13:00.579360,15.80981843,.00014826,97.2826,213.0300,120.5844,239.5570,0,U,69550,999,292,.17163507E-2,.344541E-2,0
STARLINK-37862,2026-135F,2026-07-04T01:08:58.442496,15.80947798,.00014284,97.2828,213.0339,126.2530,233.8870,0,U,69551,999,292,.14266468E-2,.283914E-2,0
STARLINK-37861,2026-135G,2026-07-04T01:06:13.999968,15.80971130,.00014695,97.2828,213.0370,140.0801,220.0575,0,U,69552,999,292,.17226863E-2,.34569E-2,0
STARLINK-37859,2026-135H,2026-07-04T14:00:01.999872,15.80897758,.0001364,97.2835,213.6074,88.5655,92.9758,0,U,69553,999,410,-.34165346E-3,-.65341E-3,0
STARLINK-37860,2026-135J,2026-07-04T14:00:01.999872,15.80801430,.00009457,97.2841,213.6084,91.6806,91.3631,0,U,69554,999,410,.2491175E-3,.47805E-3,0
STARLINK-37858,2026-135K,2026-07-04T01:01:52.518144,15.80969658,.00015441,97.2826,213.0416,124.8272,235.3142,0,U,69555,999,292,.1543446E-2,.308347E-2,0
