STARLINK-37438          
1 69526U 26133U   26185.58335648 -.00166438  00000+0 -30415-2 0  9991
2 69526  53.1591 235.1286 0000936  49.4590  14.3783 15.49375478  4711
STARLINK-37484          
1 69527U 26133V   26185.58335648 -.02320840  00000+0 -25555-1 0  9991
2 69527  53.1594 234.5898 0000779  71.5816 256.9793 15.65726858  4714
STARLINK-37523          
1 69528U 26133W   26185.58335648 -.00674105  00000+0 -11418-1 0  9999
2 69528  53.1591 234.9573 0001353  58.1884  89.5320 15.53326362  4710
STARLINK-37369          
1 69529U 26133X   26185.58335648 -.00698048  00000+0 -11612-1 0  9998
2 69529  53.1592 234.9193 0001063  57.1649 108.1630 15.53904365  4713
STARLINK-37670          
1 69530U 26133Y   26185.58335648  .00002682  00000+0  56290-4 0  9995
2 69530  53.1590 235.0642 0000889  43.2316  50.4557 15.49288082  4719
STARLINK-37897          
1 69531U 26133Z   26185.58335648 -.02439767  00000+0 -30394-1 0  9992
2 69531  53.1596 234.5159 0001026  50.3763 312.4213 15.62818454  4663
STARLINK-37933          
1 69532U 26133AA  26185.58335648 -.02102399  00000+0 -35587-1 0  9990
2 69532  53.1597 234.7471 0001663  66.9612 181.5829 15.54257641  4661
STARLINK-37890          
1 69533U 26133AB  26185.58335648 -.02457713  00000+0 -39471-1 0  9990
2 69533  53.1600 234.6076 0000935  55.6798 260.8870 15.56256933  4660
STARLINK-37407          
1 69534U 26133AC  26185.58335648 -.02455188  00000+0 -36188-1 0  9997
2 69534  53.1591 234.5030 0000887  64.8931 302.3649 15.58518783  4714
STARLINK-37888          
1 69535U 26133AD  26185.58335648 -.02467260  00000+0 -40419-1 0  9994
2 69535  53.1589 234.4906 0001035  55.3187 317.1487 15.55741755  4669
STARLINK-37889          
1 69536U 26133AE  26185.58335648 -.00009935  00000+0 -17096-3 0  9991
2 69536  53.1598 235.3710 0001196  61.3745 245.4950 15.49283948  4664
2026-134A               
1 69538U 26134A   26185.62491183  .00009304  00000+0  58460-3 0  9994
2 69538  97.6995 255.7965 0015238 207.5006 152.5418 15.09383383  2940
2026-134B               
1 69539U 26134B   26185.62289481  .00009576  00000+0  59895-3 0  9995
2 69539  97.6972 255.7932 0015326 210.1452 149.8896 15.09540474  2937
2026-134C               
1 69540U 26134C   26185.62248948  .00009652  00000+0  60327-3 0  9997
2 69540  97.6978 255.7952 0014751 211.2959 148.7393 15.09572655  2938
2026-134D               
1 69541U 26134D   26185.62175096  .00009718  00000+0  60620-3 0  9990
2 69541  97.7017 255.8055 0015812 211.0138 149.0159 15.09630153  2937
2026-134E               
1 69542U 26134E   26185.62146777  .00009751  00000+0  60793-3 0  9993
2 69542  97.7036 255.8103 0015545 211.7855 148.2437 15.09652009  2933
2026-134F               
1 69543U 26134F   26185.62087747  .00009698  00000+0  60405-3 0  9995
2 69543  97.6989 255.7999 0014849 213.4343 146.5949 15.09697686  2938
2026-134G               
1 69544U 26134G   26185.61979863  .00009820  00000+0  61007-3 0  9990
2 69544  97.7034 255.8119 0015294 214.2396 145.7848 15.09782127  2932
2026-134H               
1 69545U 26134H   26185.61895080  .00009999  00000+0  62002-3 0  9992
2 69545  97.7020 255.8095 0015144 215.6583 144.3635 15.09849061  2927
STARLINK-37880          
1 69546U 26135A   26184.80112098  .00386018  00000+0  19204-2 0  9990
2 69546  97.2840 212.7588 0002111  89.2556 270.8954 15.80904944  2882
STARLINK-37881          
1 69547U 26135B   26185.05375123  .00303143  00000+0  15187-2 0  9993
2 69547  97.2826 213.0268 0001559 131.5270 228.6133 15.80964806  2923
STARLINK-37265          
1 69548U 26135C   26184.86317642  .00281777  00000+0  14192-2 0  9997
2 69548  97.2827 212.8265 0001389  93.3471 266.7956 15.80901877  2899
STARLINK-37871          
1 69549U 26135D   26185.05214477  .00491720  00000+0  24029-2 0  9993
2 69549  97.2827 213.0285 0001803 147.3246 212.8135 15.81025527  2921
STARLINK-37865          
1 69550U 26135E   26185.05070115  .00344541  00000+0  17164-2 0  9994
2 69550  97.2826 213.0300 0001482 120.5844 239.5570 15.80981843  2920
STARLINK-37862          
1 69551U 26135F   26185.04789864  .00283914  00000+0  14266-2 0  9998
2 69551  97.2828 213.0339 0001428 126.2530 233.8870 15.80947798  2921
STARLINK-37861          
1 69552U 26135G   26185.04599537  .00345690  00000+0  17227-2 0  9995
2 69552  97.2828 213.0370 0001469 140.0801 220.0575 15.80971130  2924
STARLINK-37859          
1 69553U 26135H   26185.58335648 -.00065341  00000+0 -34165-3 0  9991
2 69553  97.2835 213.6074 0001364  88.5655  92.9758 15.80897758  4101
STARLINK-37860          
1 69554U 26135J   26185.58335648  .00047805  00000+0  24912-3 0  9994
2 69554  97.2841 213.6084 0000945  91.6806  91.3631 15.80801430  4102
STARLINK-37858          
1 69555U 26135K   26185.04296896  .00308347  00000+0  15434-2 0  9996
2 69555  97.2826 213.0416 0001544 124.8272 235.3142 15.80969658  2923
